[{"OBJECT_NAME":"KUIPER-00029","OBJECT_ID":"2025-088U","EPOCH":"2026-03-09T22:00:01.999584","MEAN_MOTION":14.81069355,"ECCENTRICITY":9.383e-5,"INCLINATION":51.9005,"RA_OF_ASC_NODE":89.6043,"ARG_OF_PERICENTER":137.8854,"MEAN_ANOMALY":294.3831,"EPHEMERIS_TYPE":0,"CLASSIFICATION_TYPE":"U","NORAD_CAT_ID":63742,"ELEMENT_SET_NO":999,"REV_AT_EPOCH":574,"BSTAR":0.002151491,"MEAN_MOTION_DOT":0.00016671,"MEAN_MOTION_DDOT":0},{"OBJECT_NAME":"OBJECT E","OBJECT_ID":"2019-079E","EPOCH":"2026-03-09T23:32:16.414656","MEAN_MOTION":14.8535198,"ECCENTRICITY":0.01693653,"INCLINATION":97.6675,"RA_OF_ASC_NODE":77.1091,"ARG_OF_PERICENTER":315.2861,"MEAN_ANOMALY":43.4802,"EPHEMERIS_TYPE":0,"CLASSIFICATION_TYPE":"U","NORAD_CAT_ID":45915,"ELEMENT_SET_NO":999,"REV_AT_EPOCH":30492,"BSTAR":0.00041459103,"MEAN_MOTION_DOT":4.556e-5,"MEAN_MOTION_DDOT":0}]
